full_name,a,e,i,om,w,q,ad,per_y,data_arc,condition_code,n_obs_used,n_del_obs_used,n_dop_obs_used,H
"       (2016 JR38)",1.189740423413653,.0708458906860234,4.309001693652336,50.91384537122939,12.51519045750737,1.105452203431746,1.27402864339556,1.29773652721979,5,9,8,,,24.487
"       (2016 NP56)",1.03422654949919,.04701804605848791,4.516754448453843,117.6392103458679,273.8920270894866,.9855992379599262,1.082853861038454,1.05179651067147,,9,15,,,26.22
"       (2016 RN20)",1.075149004712333,.07320550420052274,5.359926849726707,345.2168762393662,42.11679235046624,.9964421797316763,1.153855829692989,1.11483652289292,1,6,19,,,28.2
"       (2016 RD34)",1.046305380044066,.03472702789915155,1.957904577122459,349.5994933868549,11.02540989558543,1.009970303920243,1.082640456167889,1.07027625399395,102,3,82,0,1,27.6
"       (2016 ST2)",1.137839724007653,.0701616732715222,3.427067162699977,74.25663376042921,214.3050330818932,1.058006985056469,1.217672462958837,1.21375166814143,59,5,31,,,24.8
"       (2016 TB18)",1.077533407898242,.08424296849444439,1.527025307264608,190.3294678880589,305.6113977832472,.9867587949649593,1.168308020831525,1.11854720812693,196,3,97,,,24.8
"       (2016 YR)",1.026663344145871,.06730694385264477,3.446279680814701,85.87749998485381,74.71966160636568,.9575617720858766,1.095764916205866,1.04028009035798,13,6,54,,,27.2
"       (2017 BZ6)",1.085629405058662,.09318152502330805,5.825770782022659,315.0750245769335,117.5694422565819,.9844688014851494,1.186790008632175,1.13117708629871,55,4,71,,,26.1
"       (2017 BN93)",1.044472590562194,.05142698939689727,2.12034441048647,315.8013104250878,23.3754739702109,.990758509722002,1.098186671402385,1.06746531777669,7,7,15,,,25.4
"       (2017 FT102)",1.038368389765087,.05891800867045471,1.516262699785992,6.717391561277662,239.6617507281545,.9771897919737813,1.099546987556392,1.05812113819677,9,3,79,,,29.5
"       (2017 JB2)",1.02039063663251,.05124292496504904,5.23213549762924,222.8656449527011,279.3533508123405,.9681028358045116,1.072678437460508,1.03076081304656,23,4,33,,,29.1
"       (2017 RL2)",1.106075582954928,.04660577902693961,2.907189319442038,350.944292760484,348.928265012502,1.054526068748637,1.157625097161219,1.16328307672009,31,5,44,,,26.1
"       (2017 SV19)",1.063223817923316,.04064202627533894,1.303190368288074,343.840743886494,156.797593543828,1.02001224757871,1.106435388267921,1.09633996977145,58,5,60,,,25.0
"       (2017 TP4)",1.078865709337894,.03823321492916986,1.558228195846777,281.2398390475203,137.6613144316504,1.037617204793067,1.120114213882721,1.12062236783508,47,5,41,,,26.3
"       (2017 UM52)",1.053597545645326,.0525599175530552,3.431633350471118,32.66248264460983,47.25323934329266,.9982205455121063,1.108974545778545,1.08148457026788,,9,8,,,29.209
"       (2017 YD1)",1.076544664588776,.09961206353622019,3.227090740933321,264.6505986990973,141.8216005729729,.96930782906018,1.183781500117372,1.11700799507498,10,6,29,,,30.0
"       (2018 AV2)",1.029609633330497,.0300115971405058,.1190028697882613,349.4546169081071,107.6307517740808,.9987094038029982,1.060509862857996,1.04476135076929,88,4,102,0,1,28.7
"       (2018 BC)",1.048285256156583,.06968055480060324,2.864727913700129,297.2309337908039,212.6877428178082,.9752401579182994,1.121330354394866,1.07331554330027,3,4,59,,,29.4
"       (2018 FM3)",1.013039267913613,.08989581202479911,4.56186319668867,181.7422779117207,255.58257827,.9219712803115103,1.104107255515715,1.01964177961406,16,5,47,,,27.2
"       (2018 GZ)",1.083499599727006,.09227509401289773,4.597343725820698,192.7669934733886,320.5559503539848,.9835195722992592,1.183479627154752,1.12784997716355,12,6,40,,,27.8
"       (2018 LQ2)",1.091104381925441,.05755101431753701,2.125695376909207,178.3197910978677,142.8360492383231,1.028310218019323,1.15389854583156,1.13974488583691,164,3,471,,,24.8
"       (2018 PM28)",1.026375294988943,.07503414964321048,2.274303176245005,78.24661519928574,4.993634799903544,.949362097514648,1.103388492463237,1.03984231669216,267,4,46,,,25.698
"       (2018 TG6)",1.063986204588394,.08385818733833529,.7103455952425828,21.43851573814898,70.38747990103654,.9747622501186162,1.153210159058172,1.09751938013024,168,2,142,,,27.1
"       (2018 UE1)",1.020577563803234,.01198213966603755,5.445623286288557,23.20812050066985,302.0117533728143,1.008348860893719,1.032806266712749,1.0310440663706,23,5,60,,,26.7
"       (2018 VN5)",1.10412036209838,.05810355241413291,3.564465859031896,235.5613189070689,149.1332206580878,1.039967046767686,1.168273677429075,1.16019991958438,90,3,98,,,25.4
"       (2018 WV1)",1.039416776843523,.06033377298856295,1.652517507518083,246.4220999075769,145.8926948017483,.9767048409889416,1.102128712698103,1.05972403823469,14,2,90,,,30.2
"       (2019 AP8)",1.1445539506433,.0361230353279751,2.397684294556051,106.368550720006,175.3614385317636,1.103209187849439,1.185898713437162,1.22451075914676,4014,2,67,,,24.506
"       (2019 FV2)",1.052290968037707,.0233872463278735,3.75418830430707,12.32360534194639,245.7741146403232,1.027680779959613,1.076901156115802,1.07947345318364,202,3,82,,,24.956
"       (2019 KJ2)",1.052938955279529,.02301672205665585,3.177392158741668,62.95330655251907,251.4400751755119,1.028703752003234,1.077174158555823,1.08047069546627,23,6,30,,,27.15
"       (2019 KM2)",1.035000042067731,.0898463235419278,4.294863416036199,92.16950482170002,19.4735990344725,.9420090934222044,1.127990990713257,1.0529766808379,4,7,14,,,25.762
"       (2019 KA3)",1.103447922940705,.09267477131957436,5.914063970426057,71.83975801207239,224.8393645038405,1.001186139019116,1.205709706862295,1.15914019128914,7,6,36,,,27.96
"       (2019 LX1)",1.103004987093456,.08795338909211067,4.428184355764943,257.7067056004188,87.61959019584583,1.005991960293086,1.200018013893825,1.15844232435083,158,5,23,,,24.524
"       (2019 NH6)",1.125592919658981,.02596463375852438,3.235349190137059,310.9274708711688,109.3715001924439,1.096367311738847,1.154818527579114,1.19420870103736,5,8,10,,,24.943
"       (2019 OF5)",1.050565890408472,.05761053472161113,5.402666209150117,294.6365530913712,268.0788879352515,.9900422277017542,1.111089553115189,1.07682008235464,2,9,6,,,25.225
"       (2019 PO1)",1.040777112504886,.06228602810940339,1.001357935846878,335.1999830585506,250.0519675641071,.9759512400197833,1.105602984989989,1.06180508791049,26,5,48,,,28.063
"       (2019 QS6)",1.150026691612801,.09549172684169933,5.995053501169675,333.3638207439475,336.4040787620082,1.040208656916649,1.259844726308954,1.23330383695749,54,4,33,,,26.057
"       (2019 QS8)",1.073279158650975,.02844098364331043,.7016378745149249,241.0632663639944,130.8581147922447,1.042754043655077,1.103804273646874,1.11192948480391,1,9,4,,,25.259
"       (2019 SU3)",1.093499955666895,.0926552392392905,1.162123852894223,5.118215897932063,322.6925006382837,.9921814556664255,1.194818455667365,1.14350049492699,28,2,149,1,1,27.28
"       (2019 TF2)",1.043917640547638,.08012973162469235,2.408290419031349,173.8893656705424,300.9133391198392,.9602688001722737,1.127566480923002,1.06661468099873,33,5,39,,,26.529
"       (2019 UO1)",1.098429710038631,.02556478992502532,2.766895058901926,218.9820197182605,337.1812807826984,1.070348585254087,1.126510834823175,1.15124195645739,15,6,27,,,25.165
"       (2019 UB4)",1.004960178092978,.09083867193146769,.7956033500092891,28.73316337445935,267.6766963623999,.9136709301710004,1.096249426014955,1.00746851307236,15,5,29,,,29.235
